[{"OBJECT_NAME":"EOSSAT-1","OBJECT_ID":"2023-001AW","EPOCH":"2026-03-09T17:40:07.010400","MEAN_MOTION":15.32339828,"ECCENTRICITY":0.00112629,"INCLINATION":97.3357,"RA_OF_ASC_NODE":130.2294,"ARG_OF_PERICENTER":110.3168,"MEAN_ANOMALY":249.9285,"EPHEMERIS_TYPE":0,"CLASSIFICATION_TYPE":"U","NORAD_CAT_ID":55053,"ELEMENT_SET_NO":999,"REV_AT_EPOCH":17668,"BSTAR":0.00024844399,"MEAN_MOTION_DOT":7.695e-5,"MEAN_MOTION_DDOT":0},{"OBJECT_NAME":"STARLINK-34791","OBJECT_ID":"2025-224K","EPOCH":"2026-03-09T23:27:49.248576","MEAN_MOTION":15.30234471,"ECCENTRICITY":0.00013171,"INCLINATION":53.1612,"RA_OF_ASC_NODE":10.3449,"ARG_OF_PERICENTER":98.5779,"MEAN_ANOMALY":261.5371,"EPHEMERIS_TYPE":0,"CLASSIFICATION_TYPE":"U","NORAD_CAT_ID":65891,"ELEMENT_SET_NO":999,"REV_AT_EPOCH":2491,"BSTAR":0.0010465324,"MEAN_MOTION_DOT":0.00030798,"MEAN_MOTION_DDOT":0}]
